OBJECT_NAME,OBJECT_ID,EPOCH,MEAN_MOTION,ECCENTRICITY,INCLINATION,RA_OF_ASC_NODE,ARG_OF_PERICENTER,MEAN_ANOMALY,EPHEMERIS_TYPE,CLASSIFICATION_TYPE,NORAD_CAT_ID,ELEMENT_SET_NO,REV_AT_EPOCH,BSTAR,MEAN_MOTION_DOT,MEAN_MOTION_DDOT
KUIPER-00282,2026-118A,2026-06-06T04:00:03.998880,15.35063365,.0011578,51.8574,106.6636,142.2693,296.7083,0,U,69267,999,166,.85431E-3,.29299E-3,0
KUIPER-00383,2026-118B,2026-06-05T22:00:01.999584,15.35780323,.00107394,51.8581,107.8466,142.5880,3.9733,0,U,69268,999,168,.10663251E-2,.37554E-3,0
KUIPER-00527,2026-118C,2026-06-06T04:00:03.998880,15.36031475,.0009902,51.8604,106.6233,136.9710,321.7993,0,U,69269,999,130,.70087E-3,.24702E-3,0
KUIPER-00562,2026-118D,2026-06-05T22:00:01.999584,15.38363942,.00020665,51.8715,107.7032,88.4082,121.6452,0,U,69270,999,221,.82466525E-3,.31424E-3,0
KUIPER-00570,2026-118E,2026-06-05T22:00:01.999584,15.35625361,.00115503,51.8565,107.8450,145.3267,1.8123,0,U,69271,999,180,.79452168E-3,.27714E-3,0
KUIPER-00572,2026-118F,2026-06-05T22:00:01.999584,15.36726099,.00075487,51.8664,107.7979,131.4542,38.0927,0,U,69272,999,155,.77862851E-3,.28108E-3,0
KUIPER-00581,2026-118G,2026-06-05T22:00:01.999584,15.36401224,.00090715,51.8645,107.8153,135.8425,25.7575,0,U,69273,999,234,.77160308E-3,.27567E-3,0
KUIPER-00584,2026-118H,2026-06-05T22:00:01.999584,15.35226586,.00115023,51.8594,107.8598,147.9199,352.0085,0,U,69274,999,130,.81194508E-3,.27968E-3,0
KUIPER-00587,2026-118J,2026-06-05T22:00:01.999584,15.36386545,.00085621,51.8618,107.8093,137.5027,27.3284,0,U,69275,999,130,.75175691E-3,.26829E-3,0
KUIPER-00590,2026-118K,2026-06-05T22:00:01.999584,15.37609585,.00045661,51.8679,107.7518,119.0305,72.4737,0,U,69276,999,210,.83634402E-3,.31101E-3,0
KUIPER-00592,2026-118L,2026-06-05T22:00:01.999584,15.37826252,.00039497,51.8701,107.7379,98.6137,98.0286,0,U,69277,999,130,.80706534E-3,.30206E-3,0
KUIPER-00593,2026-118M,2026-06-05T22:00:01.999584,15.37726775,.00042453,51.8706,107.7373,114.7805,81.4652,0,U,69278,999,231,.85297109E-3,.31851E-3,0
KUIPER-00594,2026-118N,2026-06-05T22:00:01.999584,15.38540865,.00014385,51.8713,107.6971,60.8328,154.1755,0,U,69279,999,130,.81791285E-3,.31344E-3,0
KUIPER-00595,2026-118P,2026-06-05T22:00:01.999584,15.38217848,.00021464,51.8706,107.7126,100.0566,108.5517,0,U,69280,999,228,.88601499E-3,.33639E-3,0
KUIPER-00596,2026-118Q,2026-06-05T22:00:01.999584,15.35556448,.00120555,51.8543,107.8554,143.8560,357.9075,0,U,69281,999,155,.74922115E-3,.26053E-3,0
KUIPER-00597,2026-118R,2026-06-05T22:00:01.999584,15.36919682,.00071441,51.8641,107.7855,131.3652,44.8992,0,U,69282,999,130,.80050439E-3,.29093E-3,0
KUIPER-00599,2026-118S,2026-06-05T22:00:01.999584,15.37101375,.00065269,51.8682,107.7755,124.1274,55.5737,0,U,69283,999,135,.84913469E-3,.31072E-3,0
KUIPER-00600,2026-118T,2026-06-05T22:00:01.999584,15.36485298,.0009173,51.8631,107.8068,131.2928,34.5701,0,U,69284,999,213,.86368021E-3,.31003E-3,0
KUIPER-00601,2026-118U,2026-06-05T22:00:01.999584,15.37419903,.00050541,51.8696,107.7592,117.5782,69.1219,0,U,69285,999,216,.8767439E-3,.32428E-3,0
KUIPER-00602,2026-118V,2026-06-05T22:00:01.999584,15.37870797,.0003351,51.8694,107.7333,107.4111,92.2046,0,U,69286,999,130,.83887646E-3,.31461E-3,0
