[
  {
    "name": "KUIPER-00282",
    "noradId": "69267",
    "line1": "1 69267U 26118A   26157.16671295  .00029299  00000+0  85431-3 0  9990",
    "line2": "2 69267  51.8574 106.6636 0011578 142.2693 296.7083 15.35063365  1664"
  },
  {
    "name": "KUIPER-00383",
    "noradId": "69268",
    "line1": "1 69268U 26118B   26156.91668981  .00037554  00000+0  10663-2 0  9998",
    "line2": "2 69268  51.8581 107.8466 0010739 142.5880   3.9733 15.35780323  1688"
  },
  {
    "name": "KUIPER-00527",
    "noradId": "69269",
    "line1": "1 69269U 26118C   26157.16671295  .00024702  00000+0  70087-3 0  9997",
    "line2": "2 69269  51.8604 106.6233 0009902 136.9710 321.7993 15.36031475  1309"
  },
  {
    "name": "KUIPER-00562",
    "noradId": "69270",
    "line1": "1 69270U 26118D   26156.91668981  .00031424  00000+0  82467-3 0  9993",
    "line2": "2 69270  51.8715 107.7032 0002066  88.4082 121.6452 15.38363942  2217"
  },
  {
    "name": "KUIPER-00570",
    "noradId": "69271",
    "line1": "1 69271U 26118E   26156.91668981  .00027714  00000+0  79452-3 0  9991",
    "line2": "2 69271  51.8565 107.8450 0011550 145.3267   1.8123 15.35625361  1803"
  },
  {
    "name": "KUIPER-00572",
    "noradId": "69272",
    "line1": "1 69272U 26118F   26156.91668981  .00028108  00000+0  77863-3 0  9994",
    "line2": "2 69272  51.8664 107.7979 0007548 131.4542  38.0927 15.36726099  1550"
  },
  {
    "name": "KUIPER-00581",
    "noradId": "69273",
    "line1": "1 69273U 26118G   26156.91668981  .00027567  00000+0  77160-3 0  9993",
    "line2": "2 69273  51.8645 107.8153 0009071 135.8425  25.7575 15.36401224  2346"
  },
  {
    "name": "KUIPER-00584",
    "noradId": "69274",
    "line1": "1 69274U 26118H   26156.91668981  .00027968  00000+0  81195-3 0  9992",
    "line2": "2 69274  51.8594 107.8598 0011502 147.9199 352.0085 15.35226586  1309"
  },
  {
    "name": "KUIPER-00587",
    "noradId": "69275",
    "line1": "1 69275U 26118J   26156.91668981  .00026829  00000+0  75176-3 0  9990",
    "line2": "2 69275  51.8618 107.8093 0008562 137.5027  27.3284 15.36386545  1300"
  },
  {
    "name": "KUIPER-00590",
    "noradId": "69276",
    "line1": "1 69276U 26118K   26156.91668981  .00031101  00000+0  83634-3 0  9998",
    "line2": "2 69276  51.8679 107.7518 0004566 119.0305  72.4737 15.37609585  2109"
  },
  {
    "name": "KUIPER-00592",
    "noradId": "69277",
    "line1": "1 69277U 26118L   26156.91668981  .00030206  00000+0  80707-3 0  9992",
    "line2": "2 69277  51.8701 107.7379 0003949  98.6137  98.0286 15.37826252  1306"
  },
  {
    "name": "KUIPER-00593",
    "noradId": "69278",
    "line1": "1 69278U 26118M   26156.91668981  .00031851  00000+0  85297-3 0  9999",
    "line2": "2 69278  51.8706 107.7373 0004245 114.7805  81.4652 15.37726775  2312"
  },
  {
    "name": "KUIPER-00594",
    "noradId": "69279",
    "line1": "1 69279U 26118N   26156.91668981  .00031344  00000+0  81791-3 0  9992",
    "line2": "2 69279  51.8713 107.6971 0001438  60.8328 154.1755 15.38540865  1301"
  },
  {
    "name": "KUIPER-00595",
    "noradId": "69280",
    "line1": "1 69280U 26118P   26156.91668981  .00033639  00000+0  88601-3 0  9990",
    "line2": "2 69280  51.8706 107.7126 0002146 100.0566 108.5517 15.38217848  2285"
  },
  {
    "name": "KUIPER-00596",
    "noradId": "69281",
    "line1": "1 69281U 26118Q   26156.91668981  .00026053  00000+0  74922-3 0  9994",
    "line2": "2 69281  51.8543 107.8554 0012055 143.8560 357.9075 15.35556448  1557"
  },
  {
    "name": "KUIPER-00597",
    "noradId": "69282",
    "line1": "1 69282U 26118R   26156.91668981  .00029093  00000+0  80050-3 0  9991",
    "line2": "2 69282  51.8641 107.7855 0007144 131.3652  44.8992 15.36919682  1304"
  },
  {
    "name": "KUIPER-00599",
    "noradId": "69283",
    "line1": "1 69283U 26118S   26156.91668981  .00031072  00000+0  84913-3 0  9994",
    "line2": "2 69283  51.8682 107.7755 0006526 124.1274  55.5737 15.37101375  1356"
  },
  {
    "name": "KUIPER-00600",
    "noradId": "69284",
    "line1": "1 69284U 26118T   26156.91668981  .00031003  00000+0  86368-3 0  9995",
    "line2": "2 69284  51.8631 107.8068 0009173 131.2928  34.5701 15.36485298  2138"
  },
  {
    "name": "KUIPER-00601",
    "noradId": "69285",
    "line1": "1 69285U 26118U   26156.91668981  .00032428  00000+0  87674-3 0  9999",
    "line2": "2 69285  51.8696 107.7592 0005054 117.5782  69.1219 15.37419903  2162"
  },
  {
    "name": "KUIPER-00602",
    "noradId": "69286",
    "line1": "1 69286U 26118V   26156.91668981  .00031461  00000+0  83888-3 0  9999",
    "line2": "2 69286  51.8694 107.7333 0003351 107.4111  92.2046 15.37870797  1308"
  }
]